[
    {
        "CCSDS_OMM_VERS": "3.0",
        "COMMENT": "GENERATED VIA SPACE-TRACK.ORG API",
        "CREATION_DATE": "2025-03-02T18:08:23",
        "ORIGINATOR": "18 SPCS",
        "OBJECT_NAME": "COSMOS 2545 (GLONASS)",
        "OBJECT_ID": "2020-018A",
        "CENTER_NAME": "EARTH",
        "REF_FRAME": "TEME",
        "TIME_SYSTEM": "UTC",
        "MEAN_ELEMENT_THEORY": "SGP4",
        "EPOCH": "2025-03-02T03:34:49.410336",
        "MEAN_MOTION": "2.13102363",
        "ECCENTRICITY": "0.00086300",
        "INCLINATION": "64.6246",
        "RA_OF_ASC_NODE": "328.9652",
        "ARG_OF_PERICENTER": "255.9099",
        "MEAN_ANOMALY": "104.0449",
        "EPHEMERIS_TYPE": "0",
        "CLASSIFICATION_TYPE": "U",
        "NORAD_CAT_ID": "45358",
        "ELEMENT_SET_NO": "999",
        "REV_AT_EPOCH": "3860",
        "BSTAR": "0.00000000000000",
        "MEAN_MOTION_DOT": "-0.00000048",
        "MEAN_MOTION_DDOT": "0.0000000000000",
        "SEMIMAJOR_AXIS": "25507.995",
        "PERIOD": "675.732",
        "APOAPSIS": "19151.874",
        "PERIAPSIS": "19107.847",
        "OBJECT_TYPE": "PAYLOAD",
        "RCS_SIZE": "LARGE",
        "COUNTRY_CODE": "CIS",
        "LAUNCH_DATE": "2020-03-16",
        "SITE": "PKMTR",
        "DECAY_DATE": null,
        "FILE": "4657142",
        "GP_ID": "282088129",
        "TLE_LINE0": "0 COSMOS 2545 (GLONASS)",
        "TLE_LINE1": "1 45358U 20018A   25061.14918299 -.00000048  00000-0  00000-0 0  9996",
        "TLE_LINE2": "2 45358  64.6246 328.9652 0008630 255.9099 104.0449  2.13102363 38606"
    }
]